start=new Date('2023-05-26T00:00:00.000Z').valueOf();
sats=[{"TIME_SYSTEM":"UTC","TLE_LINE1":"1 53987U 22125Z   23145.87662958 -.00000740  00000-0 -28428-4 0  9991","BSTAR":"-0.00002842800000","MEAN_MOTION":"15.08842495","ECCENTRICITY":"0.00015990","EPHEMERIS_TYPE":"0","REF_FRAME":"TEME","EPOCH":"2023-05-25T21:02:20.795712","LAUNCH_DATE":"2022-10-05","OBJECT_ID":"2022-125Z","SEMIMAJOR_AXIS":"6917.873","DECAY_DATE":null,"CENTER_NAME":"EARTH","NORAD_CAT_ID":"53987","FILE":"3917122","OBJECT_TYPE":"PAYLOAD","RCS_SIZE":"LARGE","SITE":"AFWTR","REV_AT_EPOCH":"3565","ARG_OF_PERICENTER":"87.1017","CLASSIFICATION_TYPE":"U","INCLINATION":"53.2182","GP_ID":"232517001","RA_OF_ASC_NODE":"107.9449","OBJECT_NAME":"STARLINK-5112","COUNTRY_CODE":"US","TLE_LINE2":"2 53987  53.2182 107.9449 0001599  87.1017 273.0158 15.08842495 35658","MEAN_ANOMALY":"273.0158","ELEMENT_SET_NO":"999","PERIOD":"95.437","APOAPSIS":"540.844","MEAN_ELEMENT_THEORY":"SGP4","MEAN_MOTION_DOT":"-0.00000740","PERIAPSIS":"538.632","MEAN_MOTION_DDOT":"0.0000000000000"},{"MEAN_MOTION_DDOT":"0.0000000000000","PERIAPSIS":"538.966","MEAN_MOTION_DOT":"0.00001246","MEAN_ELEMENT_THEORY":"SGP4","APOAPSIS":"540.577","PERIOD":"95.438","ELEMENT_SET_NO":"999","TLE_LINE2":"2 53988  53.2169 115.3278 0001164  97.6063 262.5061 15.08831457 35395","MEAN_ANOMALY":"262.5061","OBJECT_NAME":"STARLINK-5113","COUNTRY_CODE":"US","RA_OF_ASC_NODE":"115.3278","GP_ID":"232451558","INCLINATION":"53.2169","CLASSIFICATION_TYPE":"U","ARG_OF_PERICENTER":"97.6063","REV_AT_EPOCH":"3539","SITE":"AFWTR","RCS_SIZE":"LARGE","OBJECT_TYPE":"PAYLOAD","FILE":"3916549","NORAD_CAT_ID":"53988","DECAY_DATE":null,"CENTER_NAME":"EARTH","SEMIMAJOR_AXIS":"6917.907","OBJECT_ID":"2022-125AA","LAUNCH_DATE":"2022-10-05","EPOCH":"2023-05-24T05:07:05.610432","EPHEMERIS_TYPE":"0","REF_FRAME":"TEME","ECCENTRICITY":"0.00011640","MEAN_MOTION":"15.08831457","BSTAR":"0.00009640700000","TLE_LINE1":"1 53988U 22125AA  23144.21325938  .00001246  00000-0  96407-4 0  9995","TIME_SYSTEM":"UTC"},{"SEMIMAJOR_AXIS":"6917.882","OBJECT_ID":"2022-125AB","FILE":"3916549","NORAD_CAT_ID":"53989","DECAY_DATE":null,"CENTER_NAME":"EARTH","OBJECT_TYPE":"PAYLOAD","RCS_SIZE":"LARGE","MEAN_MOTION":"15.08839618","ECCENTRICITY":"0.00012690","BSTAR":"0.00005559800000","TLE_LINE1":"1 53989U 22125AB  23144.33563815  .00000597  00000-0  55598-4 0  9991","TIME_SYSTEM":"UTC","REF_FRAME":"TEME","EPHEMERIS_TYPE":"0","EPOCH":"2023-05-24T08:03:19.136160","LAUNCH_DATE":"2022-10-05","TLE_LINE2":"2 53989  53.2169 114.6774 0001269  92.1620 267.9517 15.08839618 35420","MEAN_ANOMALY":"267.9517","OBJECT_NAME":"STARLINK-5115","COUNTRY_CODE":"US","RA_OF_ASC_NODE":"114.6774","PERIOD":"95.438","ELEMENT_SET_NO":"999","APOAPSIS":"540.624","MEAN_MOTION_DDOT":"0.0000000000000","PERIAPSIS":"538.869","MEAN_MOTION_DOT":"0.00000597","MEAN_ELEMENT_THEORY":"SGP4","ARG_OF_PERICENTER":"92.1620","SITE":"AFWTR","REV_AT_EPOCH":"3542","INCLINATION":"53.2169","CLASSIFICATION_TYPE":"U","GP_ID":"232451566"},{"REF_FRAME":"TEME","EPHEMERIS_TYPE":"0","BSTAR":"0.00005392100000","TLE_LINE1":"1 53990U 22125AC  23145.93181709  .00000570  00000-0  53921-4 0  9997","TIME_SYSTEM":"UTC","ECCENTRICITY":"0.00012380","MEAN_MOTION":"15.08834589","LAUNCH_DATE":"2022-10-05","EPOCH":"2023-05-25T22:21:48.996576","NORAD_CAT_ID":"53990","DECAY_DATE":null,"CENTER_NAME":"EARTH","FILE":"3917122","SEMIMAJOR_AXIS":"6917.897","OBJECT_ID":"2022-125AC","RCS_SIZE":"LARGE","OBJECT_TYPE":"PAYLOAD","SITE":"AFWTR","REV_AT_EPOCH":"3565","ARG_OF_PERICENTER":"93.2021","GP_ID":"232516750","INCLINATION":"53.2169","CLASSIFICATION_TYPE":"U","ELEMENT_SET_NO":"999","PERIOD":"95.438","OBJECT_NAME":"STARLINK-5075","COUNTRY_CODE":"US","RA_OF_ASC_NODE":"107.5754","TLE_LINE2":"2 53990  53.2169 107.5754 0001238  93.2021 266.9112 15.08834589 35651","MEAN_ANOMALY":"266.9112","MEAN_MOTION_DOT":"0.00000570","MEAN_ELEMENT_THEORY":"SGP4","MEAN_MOTION_DDOT":"0.0000000000000","PERIAPSIS":"538.905","APOAPSIS":"540.618"},{"OBJECT_ID":"2022-125AD","SEMIMAJOR_AXIS":"6922.870","FILE":"3917122","NORAD_CAT_ID":"53991","DECAY_DATE":null,"CENTER_NAME":"EARTH","OBJECT_TYPE":"PAYLOAD","RCS_SIZE":"LARGE","MEAN_MOTION":"15.07208949","ECCENTRICITY":"0.00011910","TLE_LINE1":"1 53991U 22125AD  23145.87382724  .00000303  00000-0  38542-4 0  9997","BSTAR":"0.00003854200000","TIME_SYSTEM":"UTC","EPHEMERIS_TYPE":"0","REF_FRAME":"TEME","EPOCH":"2023-05-25T20:58:18.673536","LAUNCH_DATE":"2022-10-05","MEAN_ANOMALY":"259.3583","TLE_LINE2":"2 53991  53.2166  95.8067 0001191 100.7543 259.3583 15.07208949 35816","OBJECT_NAME":"STARLINK-5118","COUNTRY_CODE":"US","RA_OF_ASC_NODE":"95.8067","PERIOD":"95.541","ELEMENT_SET_NO":"999","APOAPSIS":"545.560","MEAN_MOTION_DDOT":"0.0000000000000","PERIAPSIS":"543.911","MEAN_MOTION_DOT":"0.00000303","MEAN_ELEMENT_THEORY":"SGP4","ARG_OF_PERICENTER":"100.7543","SITE":"AFWTR","REV_AT_EPOCH":"3581","INCLINATION":"53.2166","CLASSIFICATION_TYPE":"U","GP_ID":"232518755"},{"MEAN_MOTION_DOT":"0.00001202","MEAN_ELEMENT_THEORY":"SGP4","MEAN_MOTION_DDOT":"0.0000000000000","PERIAPSIS":"538.939","APOAPSIS":"540.565","ELEMENT_SET_NO":"999","PERIOD":"95.438","OBJECT_NAME":"STARLINK-5108","COUNTRY_CODE":"US","RA_OF_ASC_NODE":"114.6648","TLE_LINE2":"2 53992  53.2166 114.6648 0001175  92.0470 268.0657 15.08837757 35417","MEAN_ANOMALY":"268.0657","GP_ID":"232452059","INCLINATION":"53.2166","CLASSIFICATION_TYPE":"U","SITE":"AFWTR","REV_AT_EPOCH":"3541","ARG_OF_PERICENTER":"92.0470","RCS_SIZE":"LARGE","OBJECT_TYPE":"PAYLOAD","NORAD_CAT_ID":"53992","DECAY_DATE":null,"CENTER_NAME":"EARTH","FILE":"3916549","SEMIMAJOR_AXIS":"6917.887","OBJECT_ID":"2022-125AE","LAUNCH_DATE":"2022-10-05","EPOCH":"2023-05-24T08:01:56.375328","REF_FRAME":"TEME","EPHEMERIS_TYPE":"0","BSTAR":"0.00009360300000","TLE_LINE1":"1 53992U 22125AE  23144.33468027  .00001202  00000-0  93603-4 0  9997","TIME_SYSTEM":"UTC","ECCENTRICITY":"0.00011750","MEAN_MOTION":"15.08837757"},{"OBJECT_TYPE":"PAYLOAD","RCS_SIZE":"LARGE","SEMIMAJOR_AXIS":"6917.877","OBJECT_ID":"2022-125AF","FILE":"3917122","DECAY_DATE":null,"CENTER_NAME":"EARTH","NORAD_CAT_ID":"53993","EPOCH":"2023-05-25T21:37:22.512000","LAUNCH_DATE":"2022-10-05","ECCENTRICITY":"0.00012440","MEAN_MOTION":"15.08841232","TIME_SYSTEM":"UTC","TLE_LINE1":"1 53993U 22125AF  23145.90095500 -.00000378  00000-0 -56648-5 0  9998","BSTAR":"-0.00000566480000","REF_FRAME":"TEME","EPHEMERIS_TYPE":"0","APOAPSIS":"540.602","PERIAPSIS":"538.881","MEAN_MOTION_DDOT":"0.0000000000000","MEAN_ELEMENT_THEORY":"SGP4","MEAN_MOTION_DOT":"-0.00000378","TLE_LINE2":"2 53993  53.2161 102.3916 0001244  91.7167 268.3968 15.08841232 35726","MEAN_ANOMALY":"268.3968","RA_OF_ASC_NODE":"102.3916","OBJECT_NAME":"STARLINK-5121","COUNTRY_CODE":"US","PERIOD":"95.437","ELEMENT_SET_NO":"999","CLASSIFICATION_TYPE":"U","INCLINATION":"53.2161","GP_ID":"232518254","ARG_OF_PERICENTER":"91.7167","SITE":"AFWTR","REV_AT_EPOCH":"3572"},{"TIME_SYSTEM":"UTC","BSTAR":"0.00009034700000","TLE_LINE1":"1 53994U 22125AG  23144.32362763  .00001150  00000-0  90347-4 0  9992","ECCENTRICITY":"0.00012380","MEAN_MOTION":"15.08837285","EPHEMERIS_TYPE":"0","REF_FRAME":"TEME","EPOCH":"2023-05-24T07:46:01.427232","LAUNCH_DATE":"2022-10-05","SEMIMAJOR_AXIS":"6917.889","OBJECT_ID":"2022-125AG","CENTER_NAME":"EARTH","DECAY_DATE":null,"NORAD_CAT_ID":"53994","FILE":"3916549","OBJECT_TYPE":"PAYLOAD","RCS_SIZE":"LARGE","REV_AT_EPOCH":"3542","SITE":"AFWTR","ARG_OF_PERICENTER":"92.9645","CLASSIFICATION_TYPE":"U","INCLINATION":"53.2155","GP_ID":"232450562","RA_OF_ASC_NODE":"114.5955","COUNTRY_CODE":"US","OBJECT_NAME":"STARLINK-5125","MEAN_ANOMALY":"267.1489","TLE_LINE2":"2 53994  53.2155 114.5955 0001238  92.9645 267.1489 15.08837285 35420","ELEMENT_SET_NO":"999","PERIOD":"95.438","APOAPSIS":"540.610","MEAN_ELEMENT_THEORY":"SGP4","MEAN_MOTION_DOT":"0.00001150","PERIAPSIS":"538.897","MEAN_MOTION_DDOT":"0.0000000000000"},{"LAUNCH_DATE":"2022-10-05","EPOCH":"2023-05-25T22:05:53.640672","EPHEMERIS_TYPE":"0","REF_FRAME":"TEME","ECCENTRICITY":"0.00012220","MEAN_MOTION":"15.08839934","TIME_SYSTEM":"UTC","BSTAR":"0.00000580840000","TLE_LINE1":"1 53995U 22125AH  23145.92075973 -.00000195  00000-0  58084-5 0  9996","RCS_SIZE":"LARGE","OBJECT_TYPE":"PAYLOAD","FILE":"3917122","DECAY_DATE":null,"CENTER_NAME":"EARTH","NORAD_CAT_ID":"53995","SEMIMAJOR_AXIS":"6917.881","OBJECT_ID":"2022-125AH","GP_ID":"232519256","CLASSIFICATION_TYPE":"U","INCLINATION":"53.2170","ARG_OF_PERICENTER":"86.2041","SITE":"AFWTR","REV_AT_EPOCH":"3565","PERIAPSIS":"538.900","MEAN_MOTION_DDOT":"0.0000000000000","MEAN_ELEMENT_THEORY":"SGP4","MEAN_MOTION_DOT":"-0.00000195","APOAPSIS":"540.591","PERIOD":"95.438","ELEMENT_SET_NO":"999","TLE_LINE2":"2 53995  53.2170 107.5059 0001222  86.2041 273.9090 15.08839934 35655","MEAN_ANOMALY":"273.9090","RA_OF_ASC_NODE":"107.5059","OBJECT_NAME":"STARLINK-5097","COUNTRY_CODE":"US"},{"OBJECT_TYPE":"PAYLOAD","RCS_SIZE":"LARGE","OBJECT_ID":"2022-125AJ","SEMIMAJOR_AXIS":"6917.882","NORAD_CAT_ID":"53996","DECAY_DATE":null,"CENTER_NAME":"EARTH","FILE":"3916549","EPOCH":"2023-05-24T07:40:43.085568","LAUNCH_DATE":"2022-10-05","TLE_LINE1":"1 53996U 22125AJ  23144.31994312  .00001772  00000-0  12941-3 0  9997","BSTAR":"0.00012941000000","TIME_SYSTEM":"UTC","MEAN_MOTION":"15.08839395","ECCENTRICITY":"0.00013130","REF_FRAME":"TEME","EPHEMERIS_TYPE":"0","APOAPSIS":"540.656","MEAN_MOTION_DOT":"0.00001772","MEAN_ELEMENT_THEORY":"SGP4","MEAN_MOTION_DDOT":"0.0000000000000","PERIAPSIS":"538.839","COUNTRY_CODE":"US","OBJECT_NAME":"STARLINK-5131","RA_OF_ASC_NODE":"114.5723","TLE_LINE2":"2 53996  53.2159 114.5723 0001313  95.9803 264.1339 15.08839395 35427","MEAN_ANOMALY":"264.1339","ELEMENT_SET_NO":"999","PERIOD":"95.438","INCLINATION":"53.2159","CLASSIFICATION_TYPE":"U","GP_ID":"232451559","SITE":"AFWTR","REV_AT_EPOCH":"3542","ARG_OF_PERICENTER":"95.9803"}];
